{
  "links" : {
    "next" : "https://api.nasa.gov/neo/rest/v1/feed?start_date=2011-01-23&end_date=2011-01-23&detailed=true&api_key=t0TVs3DtDT2H8Oy2Zy8m2eVrNsAVKAexjcZXUckd",
    "prev" : "https://api.nasa.gov/neo/rest/v1/feed?start_date=2011-01-21&end_date=2011-01-21&detailed=true&api_key=t0TVs3DtDT2H8Oy2Zy8m2eVrNsAVKAexjcZXUckd",
    "self" : "https://api.nasa.gov/neo/rest/v1/feed?start_date=2011-01-22&end_date=2011-01-22&detailed=true&api_key=t0TVs3DtDT2H8Oy2Zy8m2eVrNsAVKAexjcZXUckd"
  },
  "element_count" : 9,
  "near_earth_objects" : {
    "2011-01-22" : [ {
      "links" : {
        "self" : "https://api.nasa.gov/neo/rest/v1/neo/3555679?api_key=t0TVs3DtDT2H8Oy2Zy8m2eVrNsAVKAexjcZXUckd"
      },
      "neo_reference_id" : "3555679",
      "name" : "(2011 BZ11)",
      "nasa_jpl_url" : "http://ssd.jpl.nasa.gov/sbdb.cgi?sstr=3555679",
      "absolute_magnitude_h" : 25.7,
      "estimated_diameter" : {
        "kilometers" : {
          "estimated_diameter_min" : 0.0192555078,
          "estimated_diameter_max" : 0.0430566244
        },
        "meters" : {
          "estimated_diameter_min" : 19.2555078188,
          "estimated_diameter_max" : 43.0566244241
        },
        "miles" : {
          "estimated_diameter_min" : 0.0119648141,
          "estimated_diameter_max" : 0.0267541378
        },
        "feet" : {
          "estimated_diameter_min" : 63.1742402722,
          "estimated_diameter_max" : 141.2618956756
        }
      },
      "is_potentially_hazardous_asteroid" : false,
      "close_approach_data" : [ {
        "close_approach_date" : "2011-01-22",
        "epoch_date_close_approach" : 1295683200000,
        "relative_velocity" : {
          "kilometers_per_second" : "13.0144093636",
          "kilometers_per_hour" : "46851.8737088056",
          "miles_per_hour" : "29111.9323053409"
        },
        "miss_distance" : {
          "astronomical" : "0.0123953273",
          "lunar" : "4.8217821121",
          "kilometers" : "1854314.5",
          "miles" : "1152217.625"
        },
        "orbiting_body" : "Earth"
      } ],
      "orbital_data" : {
        "orbit_id" : "6",
        "orbit_determination_date" : "2017-04-06 08:54:50",
        "orbit_uncertainty" : "9",
        "minimum_orbit_intersection" : ".00501402",
        "jupiter_tisserand_invariant" : "4.625",
        "epoch_osculation" : "2455588.5",
        "eccentricity" : ".4718578801915863",
        "semi_major_axis" : "1.40245701462962",
        "inclination" : "2.551353034948882",
        "ascending_node_longitude" : "317.68606063",
        "orbital_period" : "606.6424058827861",
        "perihelion_distance" : ".7406966206466672",
        "perihelion_argument" : "87.08053512438039",
        "aphelion_distance" : "2.064217408612573",
        "perihelion_time" : "2455533.200116491774",
        "mean_anomaly" : "32.8166278352917",
        "mean_motion" : ".5934303248651535",
        "equinox" : "J2000"
      }
    }, {
      "links" : {
        "self" : "https://api.nasa.gov/neo/rest/v1/neo/2416002?api_key=t0TVs3DtDT2H8Oy2Zy8m2eVrNsAVKAexjcZXUckd"
      },
      "neo_reference_id" : "2416002",
      "name" : "416002 (2002 BN)",
      "nasa_jpl_url" : "http://ssd.jpl.nasa.gov/sbdb.cgi?sstr=2416002",
      "absolute_magnitude_h" : 20.5,
      "estimated_diameter" : {
        "kilometers" : {
          "estimated_diameter_min" : 0.2111324448,
          "estimated_diameter_max" : 0.4721064988
        },
        "meters" : {
          "estimated_diameter_min" : 211.1324447897,
          "estimated_diameter_max" : 472.1064988055
        },
        "miles" : {
          "estimated_diameter_min" : 0.1311915784,
          "estimated_diameter_max" : 0.2933532873
        },
        "feet" : {
          "estimated_diameter_min" : 692.6917701639,
          "estimated_diameter_max" : 1548.9058855411
        }
      },
      "is_potentially_hazardous_asteroid" : false,
      "close_approach_data" : [ {
        "close_approach_date" : "2011-01-22",
        "epoch_date_close_approach" : 1295683200000,
        "relative_velocity" : {
          "kilometers_per_second" : "17.296683871",
          "kilometers_per_hour" : "62268.0619357393",
          "miles_per_hour" : "38690.9521511265"
        },
        "miss_distance" : {
          "astronomical" : "0.1899101777",
          "lunar" : "73.8750610352",
          "kilometers" : "28410158",
          "miles" : "17653254"
        },
        "orbiting_body" : "Earth"
      } ],
      "orbital_data" : {
        "orbit_id" : "31",
        "orbit_determination_date" : "2017-04-06 09:21:23",
        "orbit_uncertainty" : "0",
        "minimum_orbit_intersection" : ".090748",
        "jupiter_tisserand_invariant" : "6.554",
        "epoch_osculation" : "2458000.5",
        "eccentricity" : ".5464253273647408",
        "semi_major_axis" : ".8750159597970893",
        "inclination" : "27.75263660449618",
        "ascending_node_longitude" : "115.7699321917712",
        "orbital_period" : "298.966404488153",
        "perihelion_distance" : ".3968850775155919",
        "perihelion_argument" : "147.2420224399091",
        "aphelion_distance" : "1.353146842078587",
        "perihelion_time" : "2458056.263988608750",
        "mean_anomaly" : "292.851866973082",
        "mean_motion" : "1.204148675555502",
        "equinox" : "J2000"
      }
    }, {
      "links" : {
        "self" : "https://api.nasa.gov/neo/rest/v1/neo/2420048?api_key=t0TVs3DtDT2H8Oy2Zy8m2eVrNsAVKAexjcZXUckd"
      },
      "neo_reference_id" : "2420048",
      "name" : "420048 (2011 DL19)",
      "nasa_jpl_url" : "http://ssd.jpl.nasa.gov/sbdb.cgi?sstr=2420048",
      "absolute_magnitude_h" : 18.8,
      "estimated_diameter" : {
        "kilometers" : {
          "estimated_diameter_min" : 0.4619074603,
          "estimated_diameter_max" : 1.0328564805
        },
        "meters" : {
          "estimated_diameter_min" : 461.9074602816,
          "estimated_diameter_max" : 1032.8564805039
        },
        "miles" : {
          "estimated_diameter_min" : 0.2870159005,
          "estimated_diameter_max" : 0.6417870641
        },
        "feet" : {
          "estimated_diameter_min" : 1515.4444719902,
          "estimated_diameter_max" : 3388.6368554964
        }
      },
      "is_potentially_hazardous_asteroid" : false,
      "close_approach_data" : [ {
        "close_approach_date" : "2011-01-22",
        "epoch_date_close_approach" : 1295683200000,
        "relative_velocity" : {
          "kilometers_per_second" : "14.814260152",
          "kilometers_per_hour" : "53331.3365473634",
          "miles_per_hour" : "33138.0185341104"
        },
        "miss_distance" : {
          "astronomical" : "0.4272122118",
          "lunar" : "166.185546875",
          "kilometers" : "63910036",
          "miles" : "39711856"
        },
        "orbiting_body" : "Earth"
      } ],
      "orbital_data" : {
        "orbit_id" : "67",
        "orbit_determination_date" : "2017-04-06 09:21:10",
        "orbit_uncertainty" : "0",
        "minimum_orbit_intersection" : ".106536",
        "jupiter_tisserand_invariant" : "4.127",
        "epoch_osculation" : "2458000.5",
        "eccentricity" : ".4123021821101549",
        "semi_major_axis" : "1.609074626770042",
        "inclination" : "28.20256139437302",
        "ascending_node_longitude" : "274.1542056839394",
        "orbital_period" : "745.5258502852745",
        "perihelion_distance" : ".9456496469746707",
        "perihelion_argument" : "293.7378511127561",
        "aphelion_distance" : "2.272499606565414",
        "perihelion_time" : "2457910.622622912806",
        "mean_anomaly" : "43.40004540286419",
        "mean_motion" : ".4828806403724921",
        "equinox" : "J2000"
      }
    } ]
  }
}